C/2020 N1 (PANSTARRS),h,03/12.2188/2021,29.7052,279.9700,186.7610,1.000480,1.320282,2000,12.5,4.0
# From MPEC 2021-P47
C/2020 N2 (ATLAS),e,161.0352,257.1022,331.2742,102.9938,0.0009429,0.98257807,0.0000,08/23.7866/2020,2000,g 16.0,3.2
# From MPEC 2020-SI8
P/2020 O1 (Lemmon-PANSTARRS),e,5.2259,175.9760,104.5255,2.644729,0.2291566,0.11931665,154.7931,03/09.0/2022,2000,g 15.5,4.0
# From MPEC 2022-ED3
C/2020 O2 (Amaral),h,08/28.6224/2021,71.7510,256.7573,10.3104,1.002323,4.862267,2000,8.0,3.2
# From MPEC 2020-SI8
P/2020 O3 (PANSTARRS),e,8.4423,266.8262,81.5803,4.650173,0.0982880,0.10386350,39.5932,03/09.0/2022,2000,g 12.0,4.0
# From MPEC 2021-BE3
C/2020 P1 (NEOWISE),h,10/20.2126/2020,45.0940,53.5152,8.8886,1.000272,0.341722,2000,14.0,3.2
# From MPEC 2022-ED3
C/2020 P3 (ATLAS),e,61.8861,19.4736,82.2523,48431,0.0000001,0.99985934,0.0000,04/20.8908/2021,2000,g  6.0,4.0
# From MPEC 2022-ED3
C/2020 PV6 (PANSTARRS),e,128.2391,329.1450,71.3864,41.82230,0.0036441,0.94510879,0.5976,03/09.0/2022,2000,g 10.0,4.0
# From MPEC 2021-N06
C/2020 Q1 (Borisov),e,142.9173,52.4136,9.9021,58.63526,0.0021952,0.97757119,0.0000,08/14.5548/2020,2000,g 14.0,4.0
# From MPEC 2022-C56
C/2020 R2 (PANSTARRS),e,53.2285,195.0936,211.7411,408.0989,0.0001196,0.98850311,0.0000,02/24.5409/2022,2000,g  9.0,4.0
# From MPEC 2022-ED3
C/2020 R4 (ATLAS),e,164.4623,323.2743,46.7208,98.87116,0.0010025,0.98959643,0.0000,03/01.9696/2021,2000,g 13.5,4.0
# From MPEC 2020-W26
P/2020 R5 (PANSTARRS),e,11.4513,272.9773,82.4587,4.983258,0.0886001,0.31471553,57.5047,03/09.0/2022,2000,g  9.5,6.0
# From MPEC 2021-Y10
C/2020 R6 (Rankin),e,82.8123,12.1780,272.0021,351.4029,0.0001496,0.99108871,0.0000,09/09.5090/2019,2000,g 11.0,4.0
# From MPEC 2022-A21
C/2020 R7 (ATLAS),h,09/16.2055/2022,114.8914,268.2811,347.8296,1.000019,2.955974,2000,7.0,3.2
# From MPEC 2021-BE3
P/2020 S1 (PANSTARRS),e,13.7332,129.4615,254.9315,5.985808,0.0673007,0.50752016,27.9848,03/09.0/2022,2000,g 14.0,4.0
# From MPEC 2021-BE3
C/2020 S2 (PANSTARRS),e,22.3997,197.6717,202.2970,10.20052,0.0302532,0.82783490,13.3717,03/09.0/2022,2000,g 17.0,4.0
# From MPEC 2022-C56
C/2020 S3 (Erasmus),e,19.9398,222.7690,349.9984,175.2210,0.0004249,0.99773561,0.0000,12/12.6611/2020,2000,g 13.5,3.2
# From MPEC 2022-ED3
C/2020 S4 (PANSTARRS),h,02/09.3295/2023,20.5730,117.7210,21.0083,1.000507,3.369464,2000,8.5,3.2
# From MPEC 2021-BE3
P/2020 S5 (PANSTARRS),e,12.3530,316.0018,53.1095,4.051605,0.1208547,0.33859746,69.7624,03/09.0/2022,2000,g 14.5,4.0
# From MPEC 2021-P47
P/2020 S6 (Leonard),e,15.4597,242.5519,176.6706,3.600118,0.1442876,0.47933421,67.8625,03/09.0/2022,2000,g 16.0,4.0
# From MPEC 2021-BE3
P/2020 S7 (PANSTARRS),e,16.0918,328.0202,40.4789,5.026067,0.0874705,0.41068578,41.6019,03/09.0/2022,2000,g 14.5,4.0
# From MPEC 2021-P47
C/2020 S8 (Lemmon),e,108.5248,24.0565,160.3281,275.1486,0.0002159,0.99140967,0.0000,04/10.9162/2021,2000,g 12.5,4.0
# From MPEC 2022-ED3
C/2020 T2 (Palomar),e,27.8683,83.0405,150.4111,320.0579,0.0001721,0.99357926,0.0000,07/11.1916/2021,2000,g 11.0,3.2
# From MPEC 2021-N06
P/2020 T3 (PANSTARRS),e,7.2958,74.0063,357.0379,3.517449,0.1494041,0.59171185,61.6301,03/09.0/2022,2000,g 18.0,3.2
# From MPEC 2021-N06
C/2020 T4 (PANSTARRS),h,07/05.2613/2021,83.8171,50.6162,79.6104,1.000082,2.191894,2000,13.0,3.2
# From MPEC 2021-BE3
C/2020 T5 (Lemmon),e,66.5879,237.8589,90.3087,822.2401,0.0000418,0.99770193,0.0000,10/09.5960/2020,2000,g 16.0,4.0
# From MPEC 2021-N06
P/2020 U2 (PANSTARRS),e,6.4211,342.8991,84.6400,3.778114,0.1342120,0.51075615,58.8197,03/09.0/2022,2000,g 18.0,4.0
# From MPEC 2021-W31
C/2020 U3 (Rankin),e,30.1711,282.6759,124.2798,65.63071,0.0018537,0.96531676,0.7340,03/09.0/2022,2000,g 15.0,4.0
# From MPEC 2022-ED3
C/2020 U4 (PANSTARRS),h,04/07.9684/2022,167.0359,120.0139,69.5322,1.001386,5.353682,2000,7.0,4.0
# From MPEC 2022-ED3
C/2020 U5 (PANSTARRS),e,97.2704,107.3368,75.4167,5785,0.0000022,0.99935072,0.0000,04/27.8855/2022,2000,g  8.0,4.0
# From MPEC 2022-ED3
C/2020 V2,h,05/08.4980/2023,131.6095,212.3632,162.4041,1.001175,2.228209,2000,4.9,4.0
# From MPEC 2021-N06
P/2020 V3 (PANSTARRS),e,23.0316,198.2618,249.3334,8.372389,0.0406846,0.25586671,16.0022,03/09.0/2022,2000,g  8.3,4.0
# From MPEC 2022-ED3
P/2020 V4 (Rankin),e,14.2429,203.4950,256.9931,9.352134,0.0344618,0.44948124,8.0712,03/09.0/2022,2000,g  9.0,4.0
# From MPEC 2021-BE3
P/2020 W1 (Rankin),e,10.7910,124.2644,264.9237,7.205026,0.0509625,0.26592239,35.7727,03/09.0/2022,2000,g 10.0,4.0
# From MPEC 2021-BE3
C/2020 W5 (Lemmon),h,11/30.0765/2020,88.5835,75.4987,24.4813,1.000738,3.364354,2000,15.0,4.0
# From MPEC 2021-P47
P/2020 X1 (ATLAS),e,31.6942,56.0158,323.3050,4.527623,0.1023054,0.36551806,61.0251,03/09.0/2022,2000,g 13.0,4.0
# From MPEC 2021-U31
C/2020 X2 (ATLAS),e,18.1882,105.4510,347.3411,16.41496,0.0148199,0.76680153,7.0865,03/09.0/2022,2000,g 10.6,4.0
# From MPEC 2021-S45
C/2020 X4 (Leonard),e,80.6327,161.8894,140.2994,42.05551,0.0036138,0.87592041,1.7241,03/09.0/2022,2000,g  9.0,4.0
# From MPEC 2022-ED3
C/2020 Y2 (ATLAS),e,101.2969,26.5121,266.1002,1143,0.0000255,0.99725891,0.0000,06/17.6781/2022,2000,g  6.5,4.0
# From MPEC 2021-R75
C/2020 Y3 (ATLAS),e,83.1012,191.4352,342.0197,147.7072,0.0005490,0.98646830,0.0000,12/03.4324/2020,2000,g 13.5,4.0
# From MPEC 2022-ED3
C/2021 A1 (Leonard),h,01/03.2989/2022,132.6859,255.8967,225.0926,1.000016,0.615251,2000,8.5,4.0
# From MPEC 2022-ED3
C/2021 A2 (NEOWISE),e,106.9775,125.2324,338.8255,246.2501,0.0002551,0.99426340,0.0000,01/22.5931/2021,2000,g 13.5,4.0
# From MPEC 2022-ED3
C/2021 A4 (NEOWISE),e,111.5535,307.1001,204.7002,42.94184,0.0035025,0.97330395,0.0000,03/20.0061/2021,2000,g 16.0,4.0
# From MPEC 2021-BE3
P/2021 A5 (PANSTARRS),e,18.1876,328.7681,61.2058,3.047108,0.1852987,0.13981303,89.3226,03/09.0/2022,2000,g 15.0,4.0
# From MPEC 2022-ED3
C/2021 A6 (PANSTARRS),e,75.6118,164.0793,351.6928,10716,0.0000009,0.99926009,0.0000,05/04.1383/2021,2000,g  7.0,4.0
# From MPEC 2022-ED3
C/2021 A7 (NEOWISE),e,78.1498,154.5178,356.0504,5149,0.0000027,0.99961787,0.0000,07/15.2958/2021,2000,g 10.0,4.0
# From MPEC 2022-ED3
C/2021 A9 (PANSTARRS),h,12/01.3877/2023,158.0256,314.8431,211.4600,1.003771,7.759671,2000,6.0,4.0
# From MPEC 2021-N06
C/2021 A10 (NEOWISE),e,151.6268,188.4104,82.4476,100.3712,0.0009801,0.98733544,0.0000,03/15.4020/2021,2000,g 19.0,4.0
# From MPEC 2022-ED3
C/2021 B2 (PANSTARRS),e,38.0908,120.5526,334.9673,349.8259,0.0001506,0.99281684,0.0000,05/04.2682/2021,2000,g 14.0,4.0
# From MPEC 2021-N06
C/2021 B3 (NEOWISE),e,119.4829,67.2865,293.5544,34.83894,0.0047930,0.93799447,1.7405,03/09.0/2022,2000,g 13.5,4.0
# From MPEC 2022-ED3
C/2021 C1 (Rankin),e,143.0440,186.8961,336.2975,77781,0.0000000,0.99995525,0.0000,12/07.0980/2020,2000,g 11.5,4.0
# From MPEC 2021-U31
P/2021 C2 (PANSTARRS),e,21.9284,66.4792,78.7780,9.536468,0.0334675,0.48726425,12.6481,03/09.0/2022,2000,g 12.0,4.0
# From MPEC 2021-N06
C/2021 C3 (Catalina),e,122.1644,181.9252,357.1317,63.00192,0.0019709,0.96387433,0.7679,03/09.0/2022,2000,g 14.0,4.0
# From MPEC 2022-ED3
C/2021 C4 (ATLAS),e,132.8493,194.2756,320.2309,19294,0.0000004,0.99976655,0.0000,01/17.0992/2021,2000,g  9.0,4.0
# From MPEC 2022-ED3
C/2021 C5 (PANSTARRS),e,50.7847,323.6899,270.9174,4267,0.0000035,0.99924022,0.0000,02/11.0476/2023,2000,g  9.0,4.0
# From MPEC 2022-ED3
C/2021 C6 (Lemmon),h,11/13.3092/2021,164.6257,332.1555,203.5588,1.001617,3.271198,2000,12.0,4.0
# From MPEC 2021-N06
C/2021 D1 (SWAN),e,31.4559,311.2688,72.2349,98.07045,0.0010148,0.99080408,0.0000,02/27.6373/2021,2000,g 13.0,4.0
# From MPEC 2022-ED3
C/2021 D2 (ZTF),h,02/03.9827/2022,83.8304,305.6791,125.0302,1.001478,2.946297,2000,9.0,4.0
# From MPEC 2021-N06
A/2021 E2,e,167.4882,190.8183,342.4511,234.9105,0.0002737,0.99026182,0.0000,12/10.4646/2020,2000,g 15.0,2.0
# From MPEC 2022-A21
C/2021 E3 (ZTF),h,06/11.9079/2022,112.5554,104.4684,228.8464,1.000846,1.777415,2000,8.5,4.0
# From MPEC 2022-ED3
A/2021 E4,e,116.3610,171.1736,48.2784,691.9378,0.0000542,0.99324216,0.0000,04/25.3314/2022,2000,g 13.5,2.0
# From MPEC 2022-ED3
C/2021 F1 (Lemmon-PANSTARRS),e,107.3244,203.4515,146.8229,236.4706,0.0002710,0.99579025,0.0000,04/06.8737/2022,2000,g 13.5,4.0
# From MPEC 2021-J72
C/2021 G1 (Leonard),e,131.5625,270.6978,107.4759,75.08148,0.0015150,0.95440211,0.3482,03/09.0/2022,2000,g 14.0,4.0
# From MPEC 2022-ED3
C/2021 G2 (ATLAS),e,48.4728,221.1193,343.3695,3780,0.0000042,0.99868304,0.0000,09/10.0565/2024,2000,g  5.5,4.0
# From MPEC 2022-ED3
C/2021 G3 (PANSTARRS),h,10/18.6990/2021,102.8914,147.4220,10.6597,1.001748,5.181686,2000,10.5,4.0
# From MPEC 2021-Y10
P/2021 HS (PANSTARRS),e,12.1709,262.3907,46.0857,4.194268,0.1147413,0.81010115,24.6259,03/09.0/2022,2000,g 22.0,4.0
# From MPEC 2022-C56
C/2021 J1 (Maury-Attard),e,92.7188,88.3232,147.3307,26.44636,0.0072469,0.93417587,2.7723,03/09.0/2022,2000,g 15.5,4.0
# From MPEC 2022-ED3
C/2021 J2 (PANSTARRS),e,156.2094,23.3296,172.0581,117.3637,0.0007752,0.95989782,0.1299,03/09.0/2022,2000,g 12.0,4.0
# From MPEC 2021-S45
P/2021 J3 (ATLAS),e,14.5478,111.2025,125.9880,8.942450,0.0368569,0.45022499,36.0392,03/09.0/2022,2000,g  7.0,4.0
# From MPEC 2022-ED3
C/2021 K1 (ATLAS),e,16.2758,140.9038,184.2802,12.70230,0.0217711,0.80337421,6.7171,03/09.0/2022,2000,g 11.0,4.0
# From MPEC 2021-R75
C/2021 K2 (MASTER),h,09/09.3012/2021,100.8374,282.2482,343.3394,1.000567,5.466796,2000,8.0,4.0
# From MPEC 2021-U31
C/2021 K3 (Catalina),h,02/02.7193/2022,134.7759,114.4508,181.9990,1.003235,5.229852,2000,10.0,4.0
# From MPEC 2021-W31
P/2021 L2 (Leonard),e,21.0692,266.6586,51.5204,4.050783,0.1208915,0.52148903,27.5076,03/09.0/2022,2000,g 17.0,4.0
# From MPEC 2022-ED3
C/2021 L3 (Borisov),h,02/13.9704/2022,78.5799,344.9688,91.6124,1.001453,8.457458,2000,6.0,4.0
# From MPEC 2021-R75
P/2021 L4 (PANSTARRS),e,16.9613,243.2238,234.5781,3.165018,0.1750410,0.11853511,160.5614,03/09.0/2022,2000,g 13.5,4.0
# From MPEC 2021-P47
P/2021 N1 (ZTF),e,11.5054,301.1659,21.1973,2.977153,0.1918679,0.67673588,52.8510,03/09.0/2022,2000,g 19.0,4.0
# From MPEC 2022-ED3
